start=new Date('2023-01-20T00:00:00.000Z').valueOf();
sats=[{"EPHEMERIS_TYPE":"0","RCS_SIZE":"LARGE","BSTAR":"0.00028340000000","MEAN_MOTION_DDOT":"0.0000000000000","OBJECT_NAME":"STARLINK-2742","CLASSIFICATION_TYPE":"U","COUNTRY_CODE":"US","EPOCH":"2023-01-19T12:56:02.402880","MEAN_ANOMALY":"263.9731","DECAY_DATE":null,"RA_OF_ASC_NODE":"167.4068","ELEMENT_SET_NO":"999","SEMIMAJOR_AXIS":"6925.370","MEAN_ELEMENT_THEORY":"SGP4","OBJECT_ID":"2021-044BC","FILE":"3754973","TLE_LINE2":"2 48688  53.0536 167.4068 0001062  96.1379 263.9731 15.06392908 91873","CENTER_NAME":"EARTH","SITE":"AFETR","PERIAPSIS":"546.500","LAUNCH_DATE":"2021-05-26","REV_AT_EPOCH":"9187","APOAPSIS":"547.971","MEAN_MOTION_DOT":"0.00003942","ARG_OF_PERICENTER":"96.1379","TIME_SYSTEM":"UTC","NORAD_CAT_ID":"48688","TLE_LINE1":"1 48688U 21044BC  23019.53891670  .00003942  00000-0  28340-3 0  9997","GP_ID":"223496878","OBJECT_TYPE":"PAYLOAD","PERIOD":"95.593","ECCENTRICITY":"0.00010620","INCLINATION":"53.0536","REF_FRAME":"TEME","MEAN_MOTION":"15.06392908"},{"LAUNCH_DATE":"2021-05-26","PERIAPSIS":"546.601","SITE":"AFETR","CENTER_NAME":"EARTH","TLE_LINE2":"2 48689  53.0529 172.3600 0000923  63.8831 296.2252 15.06391285 91809","FILE":"3754973","MEAN_ELEMENT_THEORY":"SGP4","OBJECT_ID":"2021-044BD","EPOCH":"2023-01-19T13:03:19.854720","MEAN_ANOMALY":"296.2252","ELEMENT_SET_NO":"999","SEMIMAJOR_AXIS":"6925.375","RA_OF_ASC_NODE":"172.3600","DECAY_DATE":null,"OBJECT_NAME":"STARLINK-2617","BSTAR":"-0.00000501780000","MEAN_MOTION_DDOT":"0.0000000000000","RCS_SIZE":"LARGE","EPHEMERIS_TYPE":"0","COUNTRY_CODE":"US","CLASSIFICATION_TYPE":"U","REF_FRAME":"TEME","INCLINATION":"53.0529","ECCENTRICITY":"0.00009230","MEAN_MOTION":"15.06391285","GP_ID":"223496129","TLE_LINE1":"1 48689U 21044BD  23019.54397980 -.00000356  00000-0 -50178-5 0  9998","NORAD_CAT_ID":"48689","PERIOD":"95.593","OBJECT_TYPE":"PAYLOAD","MEAN_MOTION_DOT":"-0.00000356","REV_AT_EPOCH":"9180","APOAPSIS":"547.879","TIME_SYSTEM":"UTC","ARG_OF_PERICENTER":"63.8831"},{"BSTAR":"0.00001605100000","MEAN_MOTION_DDOT":"0.0000000000000","OBJECT_NAME":"STARLINK-2740","EPHEMERIS_TYPE":"0","RCS_SIZE":"LARGE","COUNTRY_CODE":"US","CLASSIFICATION_TYPE":"U","MEAN_ANOMALY":"276.0729","EPOCH":"2023-01-19T13:12:37.083744","SEMIMAJOR_AXIS":"6925.368","ELEMENT_SET_NO":"999","RA_OF_ASC_NODE":"182.3556","DECAY_DATE":null,"CENTER_NAME":"EARTH","OBJECT_ID":"2021-044BE","MEAN_ELEMENT_THEORY":"SGP4","FILE":"3754973","TLE_LINE2":"2 48690  53.0529 182.3556 0001220  84.0399 276.0729 15.06393685 91662","PERIAPSIS":"546.388","LAUNCH_DATE":"2021-05-26","SITE":"AFETR","MEAN_MOTION_DOT":"-0.00000042","APOAPSIS":"548.078","REV_AT_EPOCH":"9166","TIME_SYSTEM":"UTC","ARG_OF_PERICENTER":"84.0399","GP_ID":"223496379","NORAD_CAT_ID":"48690","TLE_LINE1":"1 48690U 21044BE  23019.55042921 -.00000042  00000-0  16051-4 0  9995","PERIOD":"95.593","OBJECT_TYPE":"PAYLOAD","REF_FRAME":"TEME","ECCENTRICITY":"0.00012200","INCLINATION":"53.0529","MEAN_MOTION":"15.06393685"},{"SITE":"AFETR","PERIAPSIS":"546.566","LAUNCH_DATE":"2021-05-26","OBJECT_ID":"2021-044BF","MEAN_ELEMENT_THEORY":"SGP4","TLE_LINE2":"2 48691  53.0523 177.7781 0000969  77.2259 282.8838 15.06392482 91720","FILE":"3754973","CENTER_NAME":"EARTH","DECAY_DATE":null,"RA_OF_ASC_NODE":"177.7781","ELEMENT_SET_NO":"999","SEMIMAJOR_AXIS":"6925.372","EPOCH":"2023-01-19T10:57:55.893888","MEAN_ANOMALY":"282.8838","CLASSIFICATION_TYPE":"U","COUNTRY_CODE":"US","EPHEMERIS_TYPE":"0","RCS_SIZE":"LARGE","MEAN_MOTION_DDOT":"0.0000000000000","BSTAR":"0.00004417500000","OBJECT_NAME":"STARLINK-2750","MEAN_MOTION":"15.06392482","ECCENTRICITY":"0.00009690","INCLINATION":"53.0523","REF_FRAME":"TEME","OBJECT_TYPE":"PAYLOAD","PERIOD":"95.593","NORAD_CAT_ID":"48691","TLE_LINE1":"1 48691U 21044BF  23019.45689692  .00000377  00000-0  44175-4 0  9995","GP_ID":"223496631","ARG_OF_PERICENTER":"77.2259","TIME_SYSTEM":"UTC","REV_AT_EPOCH":"9172","APOAPSIS":"547.908","MEAN_MOTION_DOT":"0.00000377"},{"CLASSIFICATION_TYPE":"U","COUNTRY_CODE":"US","EPHEMERIS_TYPE":"0","RCS_SIZE":"LARGE","BSTAR":"0.00002627100000","MEAN_MOTION_DDOT":"0.0000000000000","OBJECT_NAME":"STARLINK-2752","DECAY_DATE":null,"RA_OF_ASC_NODE":"177.9680","SEMIMAJOR_AXIS":"6925.361","ELEMENT_SET_NO":"999","MEAN_ANOMALY":"265.5759","EPOCH":"2023-01-19T10:36:43.252992","OBJECT_ID":"2021-044BG","MEAN_ELEMENT_THEORY":"SGP4","TLE_LINE2":"2 48692  53.0525 177.9680 0001558  94.5408 265.5759 15.06396043 91723","FILE":"3754973","CENTER_NAME":"EARTH","SITE":"AFETR","PERIAPSIS":"546.147","LAUNCH_DATE":"2021-05-26","ARG_OF_PERICENTER":"94.5408","TIME_SYSTEM":"UTC","REV_AT_EPOCH":"9172","APOAPSIS":"548.305","MEAN_MOTION_DOT":"0.00000110","OBJECT_TYPE":"PAYLOAD","PERIOD":"95.592","NORAD_CAT_ID":"48692","TLE_LINE1":"1 48692U 21044BG  23019.44216728  .00000110  00000-0  26271-4 0  9993","GP_ID":"223497378","MEAN_MOTION":"15.06396043","ECCENTRICITY":"0.00015580","INCLINATION":"53.0525","REF_FRAME":"TEME"},{"ARG_OF_PERICENTER":"97.6608","TIME_SYSTEM":"UTC","APOAPSIS":"548.074","REV_AT_EPOCH":"9253","MEAN_MOTION_DOT":"0.00000381","OBJECT_TYPE":"PAYLOAD","PERIOD":"95.593","TLE_LINE1":"1 48693U 21044BH  23019.71535298  .00000381  00000-0  44489-4 0  9991","NORAD_CAT_ID":"48693","GP_ID":"223504614","MEAN_MOTION":"15.06383508","INCLINATION":"53.0524","ECCENTRICITY":"0.00011700","REF_FRAME":"TEME","CLASSIFICATION_TYPE":"U","COUNTRY_CODE":"US","RCS_SIZE":"LARGE","EPHEMERIS_TYPE":"0","OBJECT_NAME":"STARLINK-2618","MEAN_MOTION_DDOT":"0.0000000000000","BSTAR":"0.00004448900000","DECAY_DATE":null,"RA_OF_ASC_NODE":"181.6100","ELEMENT_SET_NO":"999","SEMIMAJOR_AXIS":"6925.399","EPOCH":"2023-01-19T17:10:06.497472","MEAN_ANOMALY":"262.4514","TLE_LINE2":"2 48693  53.0524 181.6100 0001170  97.6608 262.4514 15.06383508 92535","FILE":"3755139","OBJECT_ID":"2021-044BH","MEAN_ELEMENT_THEORY":"SGP4","CENTER_NAME":"EARTH","SITE":"AFETR","LAUNCH_DATE":"2021-05-26","PERIAPSIS":"546.454"},{"OBJECT_TYPE":"PAYLOAD","PERIOD":"95.592","NORAD_CAT_ID":"48694","TLE_LINE1":"1 48694U 21044BJ  23019.48451565  .00000835  00000-0  74970-4 0  9992","GP_ID":"223495880","MEAN_MOTION":"15.06395841","ECCENTRICITY":"0.00011850","INCLINATION":"53.0523","REF_FRAME":"TEME","ARG_OF_PERICENTER":"91.7934","TIME_SYSTEM":"UTC","APOAPSIS":"548.047","REV_AT_EPOCH":"9158","MEAN_MOTION_DOT":"0.00000835","OBJECT_ID":"2021-044BJ","MEAN_ELEMENT_THEORY":"SGP4","FILE":"3754973","TLE_LINE2":"2 48694  53.0523 187.6467 0001185  91.7934 268.3191 15.06395841 91583","CENTER_NAME":"EARTH","SITE":"AFETR","PERIAPSIS":"546.406","LAUNCH_DATE":"2021-05-26","CLASSIFICATION_TYPE":"U","COUNTRY_CODE":"US","EPHEMERIS_TYPE":"0","RCS_SIZE":"LARGE","MEAN_MOTION_DDOT":"0.0000000000000","BSTAR":"0.00007497000000","OBJECT_NAME":"STARLINK-2748","RA_OF_ASC_NODE":"187.6467","DECAY_DATE":null,"ELEMENT_SET_NO":"999","SEMIMAJOR_AXIS":"6925.361","EPOCH":"2023-01-19T11:37:42.152160","MEAN_ANOMALY":"268.3191"},{"REF_FRAME":"TEME","INCLINATION":"53.0539","ECCENTRICITY":"0.00024130","MEAN_MOTION":"15.06402022","GP_ID":"223497131","TLE_LINE1":"1 48695U 21044BK  23019.44124301  .00002500  00000-0  18665-3 0  9993","NORAD_CAT_ID":"48695","PERIOD":"95.592","OBJECT_TYPE":"PAYLOAD","MEAN_MOTION_DOT":"0.00002500","APOAPSIS":"548.878","REV_AT_EPOCH":"9158","TIME_SYSTEM":"UTC","ARG_OF_PERICENTER":"73.0202","LAUNCH_DATE":"2021-05-26","PERIAPSIS":"545.536","SITE":"AFETR","CENTER_NAME":"EARTH","TLE_LINE2":"2 48695  53.0539 187.8968 0002413  73.0202 287.1051 15.06402022 91589","FILE":"3754973","MEAN_ELEMENT_THEORY":"SGP4","OBJECT_ID":"2021-044BK","MEAN_ANOMALY":"287.1051","EPOCH":"2023-01-19T10:35:23.396064","ELEMENT_SET_NO":"999","SEMIMAJOR_AXIS":"6925.342","RA_OF_ASC_NODE":"187.8968","DECAY_DATE":null,"OBJECT_NAME":"STARLINK-2616","BSTAR":"0.00018665000000","MEAN_MOTION_DDOT":"0.0000000000000","RCS_SIZE":"LARGE","EPHEMERIS_TYPE":"0","COUNTRY_CODE":"US","CLASSIFICATION_TYPE":"U"},{"CLASSIFICATION_TYPE":"U","COUNTRY_CODE":"US","EPHEMERIS_TYPE":"0","RCS_SIZE":"LARGE","MEAN_MOTION_DDOT":"0.0000000000000","BSTAR":"0.00004322300000","OBJECT_NAME":"STARLINK-2753","DECAY_DATE":null,"RA_OF_ASC_NODE":"191.4495","ELEMENT_SET_NO":"999","SEMIMAJOR_AXIS":"6925.344","MEAN_ANOMALY":"275.5848","EPOCH":"2023-01-19T18:19:08.469408","MEAN_ELEMENT_THEORY":"SGP4","OBJECT_ID":"2021-044BL","FILE":"3755176","TLE_LINE2":"2 48696  53.0538 191.4495 0001247  84.5283 275.5848 15.06401477 92405","CENTER_NAME":"EARTH","SITE":"AFETR","PERIAPSIS":"546.345","LAUNCH_DATE":"2021-05-26","ARG_OF_PERICENTER":"84.5283","TIME_SYSTEM":"UTC","APOAPSIS":"548.073","REV_AT_EPOCH":"9240","MEAN_MOTION_DOT":"0.00000362","OBJECT_TYPE":"PAYLOAD","PERIOD":"95.592","NORAD_CAT_ID":"48696","TLE_LINE1":"1 48696U 21044BL  23019.76329247  .00000362  00000-0  43223-4 0  9998","GP_ID":"223506088","MEAN_MOTION":"15.06401477","ECCENTRICITY":"0.00012470","INCLINATION":"53.0538","REF_FRAME":"TEME"},{"TIME_SYSTEM":"UTC","ARG_OF_PERICENTER":"99.8550","MEAN_MOTION_DOT":"0.00000704","APOAPSIS":"548.140","REV_AT_EPOCH":"9236","MEAN_MOTION":"15.06385150","REF_FRAME":"TEME","ECCENTRICITY":"0.00012720","INCLINATION":"53.0543","PERIOD":"95.593","OBJECT_TYPE":"PAYLOAD","GP_ID":"223505619","NORAD_CAT_ID":"48697","TLE_LINE1":"1 48697U 21044BM  23019.52740205  .00000704  00000-0  66171-4 0  9991","SEMIMAJOR_AXIS":"6925.394","ELEMENT_SET_NO":"999","RA_OF_ASC_NODE":"192.4694","DECAY_DATE":null,"EPOCH":"2023-01-19T12:39:27.537120","MEAN_ANOMALY":"260.2582","COUNTRY_CODE":"US","CLASSIFICATION_TYPE":"U","BSTAR":"0.00006617100000","MEAN_MOTION_DDOT":"0.0000000000000","OBJECT_NAME":"STARLINK-2715","EPHEMERIS_TYPE":"0","RCS_SIZE":"LARGE","PERIAPSIS":"546.378","LAUNCH_DATE":"2021-05-26","SITE":"AFETR","CENTER_NAME":"EARTH","OBJECT_ID":"2021-044BM","MEAN_ELEMENT_THEORY":"SGP4","FILE":"3755203","TLE_LINE2":"2 48697  53.0543 192.4694 0001272  99.8550 260.2582 15.06385150 92368"}];
